[{"OBJECT_NAME":"STARLINK-4177","OBJECT_ID":"2022-076AD","EPOCH":"2026-03-09T08:42:24.782112","MEAN_MOTION":15.08842063,"ECCENTRICITY":0.00015946,"INCLINATION":53.2182,"RA_OF_ASC_NODE":85.5848,"ARG_OF_PERICENTER":104.1045,"MEAN_ANOMALY":256.0125,"EPHEMERIS_TYPE":0,"CLASSIFICATION_TYPE":"U","NORAD_CAT_ID":53013,"ELEMENT_SET_NO":999,"REV_AT_EPOCH":20293,"BSTAR":0.00012077322,"MEAN_MOTION_DOT":1.635e-5,"MEAN_MOTION_DDOT":0},{"OBJECT_NAME":"OBJECT A","OBJECT_ID":"2024-110A","EPOCH":"2026-03-09T23:09:02.134656","MEAN_MOTION":15.1192128,"ECCENTRICITY":0.0007919,"INCLINATION":97.5675,"RA_OF_ASC_NODE":161.4531,"ARG_OF_PERICENTER":228.7681,"MEAN_ANOMALY":131.2868,"EPHEMERIS_TYPE":0,"CLASSIFICATION_TYPE":"U","NORAD_CAT_ID":60012,"ELEMENT_SET_NO":999,"REV_AT_EPOCH":9691,"BSTAR":0.00051932581,"MEAN_MOTION_DOT":8.842e-5,"MEAN_MOTION_DDOT":0}]
